GOES 1 (SMS-C) [-]      
1 08366U 75100A   23353.49143120  .00000030  00000+0  00000+0 0  9997
2 08366   6.9227 288.8126 0016897 348.1674 218.8924  1.00537397175934
GOES 2 [-]              
1 10061U 77048A   23361.64033594 -.00000169  00000+0  00000+0 0  9998
2 10061   8.5637 301.3836 0011894  29.5635 101.8319  0.99395595 37306
GOES 3 [-]              
1 10953U 78062A   23361.52245705  .00000037  00000+0  00000+0 0  9994
2 10953   8.9452 306.3355 0001017 255.9383 335.6659  0.99357853119565
GOES 4 [-]              
1 11964U 80074A   23361.47969394  .00000106  00000+0  00000+0 0  9991
2 11964   9.9516 310.1711 0031074  87.0653 290.5226  0.99227132118484
GOES 5 [-]              
1 12472U 81049A   23361.58335851  .00000082  00000+0  00000+0 0  9999
2 12472  10.9787 322.0416 0002295 271.5087 299.1219  1.00228979113798
GOES 6 [-]              
1 14050U 83041A   23361.58324389  .00000067  00000+0  00000+0 0  9994
2 14050  11.6361 327.4826 0002944 200.1787   4.9194  1.00256260206968
GOES 7 [-]              
1 17561U 87022A   23361.57425522  .00000101  00000+0  00000+0 0  9996
2 17561  13.7510 344.1469 0002337  64.1508 111.3676  0.99897226117948
GOES 8 [-]              
1 23051U 94022A   23361.52539645 -.00000270  00000+0  00000+0 0  9990
2 23051  13.6526  20.2620 0002548  37.4459   2.5070  0.98906882115202
GOES 9 [-]              
1 23581U 95025A   23361.35729312 -.00000139  00000+0  00000+0 0  9999
2 23581  13.1558  20.8155 0005572 155.1268 238.6470  0.98801502103841
GOES 10 [-]             
1 24786U 97019A   23361.59748890 -.00000295  00000+0  00000+0 0  9993
2 24786  12.0600  27.2108 0029967 215.4404 221.5932  0.99127870 97127
GOES 11 [-]             
1 26352U 00022A   23361.38638719  .00000036  00000+0  00000+0 0  9999
2 26352   9.8732  54.7285 0004628 211.6397 185.4707  0.99041674 43536
GOES 12 [-]             
1 26871U 01031A   23361.45976573 -.00000249  00000+0  00000+0 0  9994
2 26871  10.5283  44.3713 0006354 283.1704 253.7550  0.99138993 81816
EWS-G1 (GOES 13) [+]    
1 29155U 06018A   23361.60920920  .00000064  00000+0  00000+0 0  9998
2 29155   2.1753  87.3230 0087517 247.3969 196.0381  0.99155153 34321
GOES 14 [B]             
1 35491U 09033A   23361.61094670 -.00000056  00000+0  00000+0 0  9995
2 35491   0.1280 249.6779 0000698 349.4214 328.0590  1.00272207 53061
GOES 15 [B]             
1 36411U 10008A   23361.55183582  .00000047  00000+0  00000+0 0  9995
2 36411   0.1325 269.1987 0006356 351.4396  95.0943  1.00274694 50582
GOES 16 [+]             
1 41866U 16071A   23361.28660553 -.00000239  00000+0  00000+0 0  9993
2 41866   0.0712 247.9428 0001402  56.6065 178.9222  1.00271394 26059
GOES 17 [+]             
1 43226U 18022A   23361.61261743 -.00000082  00000+0  00000+0 0  9994
2 43226   0.0180 227.8172 0002090  32.7566 311.1108  1.00272088 21373
GOES 18 [+]             
1 51850U 22021A   23361.61000885  .00000106  00000+0  00000+0 0  9994
2 51850   0.0226 188.8941 0000656  54.7927 294.7394  1.00271338  6730
